OBJECT_NAME,OBJECT_ID,EPOCH,MEAN_MOTION,ECCENTRICITY,INCLINATION,RA_OF_ASC_NODE,ARG_OF_PERICENTER,MEAN_ANOMALY,EPHEMERIS_TYPE,CLASSIFICATION_TYPE,NORAD_CAT_ID,ELEMENT_SET_NO,REV_AT_EPOCH,BSTAR,MEAN_MOTION_DOT,MEAN_MOTION_DDOT
STARLINK-35833,2025-265AC,2026-06-23T23:30:08.531424,15.27580779,.00013244,42.9971,38.1402,263.6282,96.4419,0,U,66542,999,3336,.20927037E-3,.5501E-4,0
STARLINK-35315,2025-265AD,2026-06-23T21:30:04.733568,15.27596886,.00011244,42.9995,38.3644,271.6592,88.4130,0,U,66543,999,3335,.72751418E-3,.19822E-3,0
STARLINK-35728,2025-265AE,2026-06-23T23:50:16.808640,15.27593159,.0001205,43.0038,37.3696,263.4525,96.6189,0,U,66544,999,3337,.52732196E-3,.14282E-3,0
STARLINK-35699,2025-268A,2026-06-23T13:01:06.529152,15.27587142,.00012065,43.0025,109.6915,269.5370,90.5344,0,U,66557,999,3414,.36001099E-3,.966E-4,0
STARLINK-35695,2025-268B,2026-06-23T20:46:20.194464,15.27595794,.00009854,43.0020,107.8173,263.9191,96.1548,0,U,66558,999,3419,.49771095E-3,.13465E-3,0
STARLINK-35419,2025-268C,2026-06-24T02:31:30.253728,15.27590409,.00012877,42.9972,106.1697,266.3982,93.6722,0,U,66559,999,3423,.42656643E-3,.11498E-3,0
STARLINK-35411,2025-268D,2026-06-24T02:27:48.786336,15.27614236,.00012468,42.9971,106.1483,276.3216,83.7494,0,U,66560,999,3423,.65167364E-3,.17732E-3,0
STARLINK-35305,2025-268E,2026-06-24T02:16:42.085920,15.27597818,.00010343,42.9980,106.0924,267.3470,92.7263,0,U,66561,999,3423,.67527968E-3,.18377E-3,0
STARLINK-35579,2025-268F,2026-06-24T02:22:15.199392,15.27594417,.000093,42.9989,106.1233,259.4562,100.6184,0,U,66562,999,3423,.7386092E-3,.20127E-3,0
STARLINK-35437,2025-268G,2026-06-24T02:11:08.996640,15.27597853,.00015157,42.9994,106.0618,268.1236,91.9442,0,U,66563,999,3423,.9618342E-3,.26315E-3,0
STARLINK-35358,2025-268H,2026-06-24T03:39:45.230976,15.27602875,.00014652,43.0020,105.6615,256.3802,103.6886,0,U,66564,999,3424,.96250519E-3,.26337E-3,0
STARLINK-35893,2025-268J,2026-06-24T02:00:02.904480,15.27594634,.00011375,42.9991,106.0012,269.7965,90.2756,0,U,66565,999,3423,.54856166E-3,.1487E-3,0
STARLINK-35871,2025-268K,2026-06-24T01:56:21.152832,15.27596312,.00021132,43.0012,105.9837,268.7382,91.3228,0,U,66566,999,3423,.70425511E-3,.19178E-3,0
STARLINK-35825,2025-268L,2026-06-24T01:50:49.774272,15.27559198,.00006875,43.0006,105.9536,304.7469,55.3318,0,U,66567,999,3423,.76961121E-3,.20963E-3,0
STARLINK-35803,2025-268M,2026-06-24T01:43:23.644416,15.27593950,.00015924,43.0028,105.9139,255.7245,104.3430,0,U,66568,999,3423,.4813946E-3,.13014E-3,0
STARLINK-35835,2025-268N,2026-06-23T20:57:13.483008,15.27584302,.0001174,43.0015,107.0014,247.1300,112.9427,0,U,66569,999,3420,.5118744E-3,.13852E-3,0
STARLINK-35834,2025-268P,2026-06-23T20:53:43.514592,15.27584029,.00013927,43.0023,107.8520,252.8327,107.2372,0,U,66570,999,3419,.54609778E-3,.14797E-3,0
STARLINK-35836,2025-268Q,2026-06-23T23:56:30.264000,15.27594987,.0001531,43.0019,107.0853,263.4357,96.6321,0,U,66571,999,3421,.71674243E-3,.19522E-3,0
STARLINK-35870,2025-268R,2026-06-23T23:47:15.019584,15.27590101,.00004051,42.9956,107.0370,237.2962,122.7850,0,U,66572,999,3421,.66799806E-3,.18171E-3,0
STARLINK-35650,2025-268S,2026-06-24T02:49:59.884608,15.27617290,.0000996,42.9994,106.2709,271.1668,88.9070,0,U,66573,999,3423,.1101701E-2,.30213E-3,0
STARLINK-35812,2025-268T,2026-06-24T02:44:27.699072,15.27586496,.00004701,42.9976,106.2394,190.0519,170.0323,0,U,66574,999,3423,.42372462E-3,.11418E-3,0
STARLINK-35810,2025-268U,2026-06-24T02:38:54.662496,15.27594099,.00002544,43.0036,106.2072,44.4683,315.6189,0,U,66575,999,3423,.65849852E-3,.1791E-3,0
STARLINK-35814,2025-268V,2026-06-24T02:33:21.467808,15.27584791,.00011928,42.9973,106.1808,260.0679,100.0038,0,U,66576,999,3423,.75793092E-3,.20656E-3,0
STARLINK-35815,2025-268W,2026-06-24T02:24:05.533056,15.27580302,.00011242,42.9990,106.1290,269.6625,90.4098,0,U,66577,999,3423,.11034321E-2,.30227E-3,0
STARLINK-35743,2025-268X,2026-06-24T02:18:33.232608,15.27591998,.00008657,42.9954,106.0988,266.7848,93.2904,0,U,66578,999,3423,.45626882E-3,.12319E-3,0
STARLINK-35868,2025-268Y,2026-06-24T02:13:00.208992,15.27593735,.00004166,42.9963,106.0691,233.3406,126.7407,0,U,66579,999,3423,.56601515E-3,.15353E-3,0
STARLINK-35872,2025-268Z,2026-06-24T02:07:26.675616,15.27604290,.00012247,42.9991,106.0381,263.6388,96.4325,0,U,66580,999,3423,.95588168E-3,.26155E-3,0
STARLINK-35744,2025-268AA,2026-06-24T02:01:54.258528,15.27617682,.00014336,43.0000,106.0078,260.7480,99.3209,0,U,66581,999,3423,.68425823E-3,.18636E-3,0
STARLINK-35746,2025-268AB,2026-06-24T01:52:38.701344,15.27590667,.00017293,43.0012,105.9594,282.0184,78.0474,0,U,66582,999,3423,.39545481E-3,.10639E-3,0
STARLINK-35941,2025-268AC,2026-06-24T01:47:04.627968,15.27602070,.00015662,43.0011,105.9300,272.2255,87.8417,0,U,66583,999,3423,.5279573E-3,.14304E-3,0
STARLINK-35939,2025-268AD,2026-06-23T20:59:03.471072,15.27609124,.00014758,43.0026,107.0069,267.9617,92.1066,0,U,66584,999,3420,.49162828E-3,.13303E-3,0
STARLINK-35963,2025-268AE,2026-06-23T12:53:41.290944,15.27621488,.00006813,42.9983,109.6472,246.8817,113.1963,0,U,66585,999,3414,.75294603E-3,.20541E-3,0
STARLINK-36076,2025-270A,2026-06-24T07:10:43.391712,15.27598731,.00007768,42.9985,173.8319,275.3391,84.7372,0,U,66588,999,3401,.5348757E-3,.14494E-3,0
STARLINK-35447,2025-270B,2026-06-23T01:51:21.113280,15.27599448,.00012886,42.9985,181.0025,256.3571,103.7137,0,U,66589,999,3393,.47221881E-3,.12763E-3,0
STARLINK-35429,2025-270C,2026-06-23T16:43:10.090848,15.27585914,.00017737,42.9996,177.9090,276.8556,83.2094,0,U,66590,999,3402,.34713952E-3,.9304E-4,0
STARLINK-36058,2025-270D,2026-06-23T23:56:56.585760,15.27581753,.00018299,42.9994,175.8690,272.7118,87.3524,0,U,66591,999,3396,.61860512E-3,.168E-3,0
STARLINK-36066,2025-270E,2026-06-24T06:32:04.397568,15.27592026,.00013642,42.9989,174.4906,279.8289,80.2409,0,U,66592,999,3390,.46561239E-3,.12577E-3,0
STARLINK-36031,2025-270F,2026-06-24T07:19:58.083168,15.27612525,.00014306,43.0014,173.8761,278.3925,81.6764,0,U,66593,999,3401,.1707341E-2,.47067E-3,0
STARLINK-36032,2025-270G,2026-06-24T06:28:22.290816,15.27592624,.00011943,42.9993,174.4663,278.6364,81.4352,0,U,66594,999,3381,.48560535E-3,.1313E-3,0
STARLINK-35711,2025-270H,2026-06-23T17:18:06.674112,15.27599751,.00012853,43.0001,177.2284,282.4980,77.5728,0,U,66595,999,3403,.43007113E-3,.11598E-3,0
STARLINK-35811,2025-270J,2026-06-24T06:43:10.672896,15.27592199,.00003989,42.9987,174.5474,242.5144,117.5667,0,U,66596,999,3411,.44298081E-3,.11952E-3,0
STARLINK-35820,2025-270K,2026-06-24T06:17:16.258272,15.27591465,.00013481,43.0011,174.4154,290.6524,69.4183,0,U,66597,999,3411,.51436186E-3,.13924E-3,0
STARLINK-35981,2025-270L,2026-06-24T07:03:19.269792,15.27582452,.00007148,43.0035,173.7869,276.0254,84.0516,0,U,66598,999,3386,.42628709E-3,.11488E-3,0
STARLINK-35930,2025-270M,2026-06-23T01:47:39.095520,15.27602778,.00010083,42.9981,180.9755,221.7466,138.3309,0,U,66599,999,3382,.53116936E-3,.14393E-3,0
STARLINK-35980,2025-270N,2026-06-24T06:39:28.776096,15.27586022,.00006153,42.9985,174.5248,268.2605,91.8176,0,U,66600,999,3390,.53569106E-3,.14511E-3,0
STARLINK-35978,2025-270P,2026-06-23T01:45:47.299968,15.27582521,.00013431,43.0020,180.9727,251.9252,108.1454,0,U,66601,999,3366,.28306605E-3,.7536E-4,0
STARLINK-36050,2025-270Q,2026-06-24T06:37:37.516224,15.27592043,.00008263,42.9988,174.5182,280.8739,79.2020,0,U,66602,999,3390,.46058269E-3,.12438E-3,0
STARLINK-36048,2025-270R,2026-06-24T07:14:24.436608,15.27599272,.00011905,42.9993,173.8460,268.0439,92.0276,0,U,66603,999,3391,.40870352E-3,.11008E-3,0
STARLINK-35977,2025-270S,2026-06-24T06:57:45.930816,15.27588440,.00007685,42.9991,173.7563,264.6668,95.4096,0,U,66604,999,3401,.48467018E-3,.13102E-3,0
STARLINK-36052,2025-270T,2026-06-24T06:22:49.076256,15.27593763,.00012518,42.9996,174.4314,271.2222,88.8487,0,U,66605,999,3400,.50081132E-3,.1355E-3,0
STARLINK-36063,2025-270U,2026-06-24T07:21:49.398336,15.27590804,.00005011,43.0010,173.8814,274.1063,85.9731,0,U,66606,999,3401,.84295881E-3,.23014E-3,0
STARLINK-35993,2025-270V,2026-06-24T06:19:07.161312,15.27589242,.00010028,43.0003,174.4144,255.2542,104.8199,0,U,66607,999,3390,.42001882E-3,.11317E-3,0
STARLINK-36036,2025-270W,2026-06-24T07:16:16.201920,15.27598593,.00005112,43.0025,173.8496,287.6970,72.3826,0,U,66608,999,3385,.68439716E-3,.18629E-3,0
STARLINK-36034,2025-270X,2026-06-24T06:48:43.632576,15.27569495,.00008632,42.9971,174.5691,310.0030,50.0746,0,U,66609,999,3384,.45915634E-3,.1239E-3,0
STARLINK-35680,2025-270Y,2026-06-23T01:53:12.222816,15.27577546,.00010582,43.0015,181.0068,255.2943,104.7792,0,U,66610,999,3393,.35038151E-3,.9391E-4,0
STARLINK-35583,2025-270Z,2026-06-23T01:42:06.078816,15.27597914,.00005673,42.9995,180.9475,261.6459,98.4328,0,U,66611,999,3393,.46831369E-3,.12654E-3,0
STARLINK-36039,2025-270AA,2026-06-24T06:26:31.417152,15.27592526,.00011551,42.9992,174.4568,275.3283,84.7437,0,U,66612,999,3400,.40237578E-3,.10831E-3,0
STARLINK-36037,2025-270AB,2026-06-23T17:38:27.833568,15.27589714,.00022833,43.0031,177.3381,282.1952,77.8643,0,U,66613,999,3392,.41456634E-3,.11167E-3,0
STARLINK-36040,2025-270AC,2026-06-24T06:45:01.593216,15.27594168,.00005695,42.9971,174.5510,254.4405,105.6384,0,U,66614,999,3384,.56373585E-3,.1529E-3,0
STARLINK-35988,2025-270AD,2026-06-23T17:21:48.150144,15.27596153,.00031163,43.0015,177.2475,269.4568,90.5927,0,U,66615,999,3376,.36783787E-3,.9879E-4,0
STARLINK-35391,2025-270AE,2026-06-24T06:33:55.503648,15.27589358,.00013839,42.9999,174.4923,276.0913,83.9781,0,U,66616,999,3411,.56363895E-3,.15285E-3,0
STARLINK-35940,2025-271A,2026-06-23T22:46:43.218048,15.30221084,.0000917,53.1603,6.5038,88.6690,271.4416,0,U,66617,999,3383,.5861259E-3,.17051E-3,0
STARLINK-35970,2025-271B,2026-06-24T05:40:45.818688,15.30203362,.00016753,53.1600,4.7291,84.9349,275.1843,0,U,66618,999,3388,.61580641E-3,.17925E-3,0
